COSMOS 2413 (712)       
1 28509U 04053B   16127.78600176  .00000055  00000-0  00000+0 0  9997
2 28509  63.1271 191.5753 0005337 176.1357 235.9725  2.13101794 88428
COSMOS 2419 (714)       
1 28915U 05050A   16127.93013137 -.00000014  00000-0  00000+0 0  9994
2 28915  65.3052  79.5560 0017305 346.5940 178.7726  2.13115791 80676
COSMOS 2425 (716)       
1 29670U 06062A   16127.40209104 -.00000021  00000-0  10000-3 0  9993
2 29670  65.6502 318.5587 0022163 351.5096 187.6852  2.13105001 72863
COSMOS 2426 (717)       
1 29671U 06062B   16127.11952029 -.00000018  00000-0  10000-3 0  9999
2 29671  65.6685 318.6488 0016627 156.9305  26.7009  2.13103023 72864
COSMOS 2424 (715)       
1 29672U 06062C   16127.65481608 -.00000023  00000-0  10000-3 0  9995
2 29672  65.6523 318.5596 0016098 155.8572 254.8384  2.13102258 72871
COSMOS 2433 (720)       
1 32275U 07052A   16128.06350485 -.00000014  00000-0  10000-3 0  9992
2 32275  65.3207  79.3217 0004638 287.7418 230.8660  2.13104916 66397
COSMOS 2432 (719)       
1 32276U 07052B   16128.40259153 -.00000014  00000-0  10000-3 0  9991
2 32276  65.3330  79.3752 0014058 332.7486  39.8881  2.13104318 66402
COSMOS 2434 (721)       
1 32393U 07065A   16128.15845567 -.00000028  00000-0  00000+0 0  9997
2 32393  65.2697 317.8754 0005815  92.4910  31.2837  2.13102876 65102
COSMOS 2436 (723)       
1 32395U 07065C   16128.13785366 -.00000028  00000-0  10000-3 0  9992
2 32395  65.2824 317.9175 0017989   0.6645 199.3196  2.13102931 65033
COSMOS 2443 (725)       
1 33379U 08046B   16128.24654884 -.00000015  00000-0  10000-3 0  9993
2 33379  65.2495  78.7364 0016301 192.1648  12.4571  2.13101470 59266
COSMOS 2456 (730)       
1 36111U 09070A   16127.87711132  .00000049  00000-0  00000+0 0  9997
2 36111  64.1818 197.4794 0004842 306.7010 130.5912  2.13102934 49760
COSMOS 2457 (733)       
1 36112U 09070B   16128.38727514  .00000047  00000-0  00000+0 0  9994
2 36112  64.1637 197.3902 0006741 173.7445  65.3801  2.13101597 49771
COSMOS 2458 (734)       
1 36113U 09070C   16127.67240634  .00000050  00000-0  10000-3 0  9998
2 36113  64.1691 197.4197 0001132 332.5057 125.6579  2.13102191 49764
COSMOS 2459 (731)       
1 36400U 10007A   16127.33798183 -.00000014  00000-0  10000-3 0  9990
2 36400  65.2282  78.5024 0030198 350.1033 197.6026  2.13102444 48107
COSMOS 2461 (735)       
1 36401U 10007B   16127.77641296 -.00000015  00000-0  10000-3 0  9992
2 36401  65.2213  78.4695 0005431  47.1711  27.4360  2.13102479 48113
COSMOS 2460 (732)       
1 36402U 10007C   16128.16927630 -.00000015  00000-0  10000-3 0  9996
2 36402  65.2120  78.4330 0002519 315.1769 102.7722  2.13101971 48128
COSMOS 2466 (738)       
1 37137U 10041A   16128.04857655 -.00000028  00000-0  10000-3 0  9990
2 37137  64.8520 318.0000 0018932 152.2914 113.3138  2.13110983 44193
COSMOS 2465 (737)       
1 37138U 10041B   16128.45744655 -.00000031  00000-0  00000+0 0  9990
2 37138  64.8695 318.0588 0034509 167.3499 231.6079  2.13101493 44207
COSMOS 2464 (736)       
1 37139U 10041C   16127.41679613 -.00000023  00000-0  00000+0 0  9998
2 37139  64.8766 318.0901 0024272  16.4809 126.0081  2.13102683 44180
COSMOS 2471 (701K)      
1 37372U 11009A   16128.41440029 -.00000015  00000-0  00000+0 0  9991
2 37372  65.2095  78.3745 0008434 247.2037 131.2597  2.13102876 40405
COSMOS 2474 (742)       
1 37829U 11055A   16127.43915409  .00000050  00000-0  00000+0 0  9997
2 37829  64.5056 197.8896 0008904 252.1564  70.7491  2.13102001 35748
COSMOS 2476 (744)       
1 37867U 11064A   16128.07173494  .00000048  00000-0  00000+0 0  9997
2 37867  64.4856 197.9507 0017891 247.2670 246.7536  2.13102137 35111
COSMOS 2477 (745)       
1 37868U 11064B   16127.28629733  .00000050  00000-0  00000+0 0  9995
2 37868  64.4946 198.0173 0015830 248.3764 182.4114  2.13101932 35053
COSMOS 2475 (743)       
1 37869U 11064C   16128.15948677  .00000048  00000-0  00000+0 0  9991
2 37869  64.5019 197.9754 0021167 274.8062  61.9649  2.13102006 35073
COSMOS 2478 (746)       
1 37938U 11071A   16128.35804260 -.00000015  00000-0  00000+0 0  9992
2 37938  65.2369  78.5969 0014241 245.9662 204.2500  2.13088535 34693
COSMOS 2485 (747)       
1 39155U 13019A   16127.70805212  .00000050  00000-0  00000+0 0  9993
2 39155  64.6553 197.9038 0018043 242.0167  18.1453  2.13102115 23574
COSMOS 2492 (754)       
1 39620U 14012A   16128.04660670 -.00000016  00000-0  10000-3 0  9997
2 39620  65.1004  78.4322 0017561 330.7289 222.2572  2.13103491 16537
COSMOS 2500 (755)       
1 40001U 14032A   16128.14156793 -.00000016  00000-0  00000+0 0  9996
2 40001  65.0410  78.4558 0005842 229.9386 259.7106  2.13103071 14753
COSMOS 2501 (702K)      
1 40315U 14075A   16127.49022836 -.00000025  00000-0  00000+0 0  9998
2 40315  64.6412 319.5568 0015774 234.9896 276.3839  2.13101604 11143
COSMOS 2514 (751)       
1 41330U 16008A   16127.97784931 -.00000016  00000-0  00000+0 0  9998
2 41330  64.8407  78.7074 0009202 231.2224 311.7556  2.13103631  1913
